{"type":"FeatureCollection","features":[{"type":"Feature","id":"d90e34a8-3486-c442-5d16-c6d483586785","properties":{"id":"d90e34a8-3486-c442-5d16-c6d483586785","name":"Macquarie Street Clinic","category":"clinic","category_label":"Abortion clinic","service_type":"Pregnancy termination","suburb":"SYDNEY","state":"NSW","postcode":"2000","phone":"02 9221 1933","website":"https://www.contraceptiveservices.com","appointment_required":true,"geometry_source":"openstreetmap","boundary_status":"matched","zone_basis":"osm-containing-building","zone_confidence":"building-match","legal_note":"Public Health Act 2010 (NSW) s 98A covers the clinic premises and every place within 150 m of any part of those premises or a pedestrian access point to the building. This map buffers the mapped building and does not separately model pedestrian access points.","osm_url":"https://www.openstreetmap.org/way/1451599956","data_source":"Healthdirect National Health Services Directory (NHSD)","data_source_url":"https://www.healthdirect.gov.au/australian-health-services","source_synced_at":"2026-09-16T00:09:42Z"},"geometry":{"type":"Point","coordinates":[151.21202087402344,-33.8671875]}},{"type":"Feature","id":"6bf7cdfa-f718-4938-b33a-6c015b323485","properties":{"id":"6bf7cdfa-f718-4938-b33a-6c015b323485","name":"MSI Sydney CBD Abortion & Contraception Clinic","category":"clinic","category_label":"Abortion clinic","service_type":"Pregnancy termination","suburb":"SYDNEY","state":"NSW","postcode":"2000","phone":"1300 003 707","website":"https://www.msiaustralia.org.au/find-a-clinic/msi-sydney-cbd-clinic/","appointment_required":true,"geometry_source":"openstreetmap","boundary_status":"matched","zone_basis":"osm-containing-building","zone_confidence":"building-match","legal_note":"Public Health Act 2010 (NSW) s 98A covers the clinic premises and every place within 150 m of any part of those premises or a pedestrian access point to the building. This map buffers the mapped building and does not separately model pedestrian access points.","osm_url":"https://www.openstreetmap.org/way/588857921","data_source":"Healthdirect National Health Services Directory (NHSD)","data_source_url":"https://www.healthdirect.gov.au/australian-health-services","source_synced_at":"2026-09-16T00:09:42Z"},"geometry":{"type":"Point","coordinates":[151.21205948,-33.86699163]}},{"type":"Feature","id":"37d7a483-8aa3-4c27-b1bc-c80942fe05da","properties":{"id":"37d7a483-8aa3-4c27-b1bc-c80942fe05da","name":"The Private Clinic","category":"clinic","category_label":"Abortion clinic","service_type":"Pregnancy termination","suburb":"SURRY HILLS","state":"NSW","postcode":"2010","phone":"02 9690 0000","website":"https://www.privateclinic.com.au/","appointment_required":true,"geometry_source":"openstreetmap","boundary_status":"matched","zone_basis":"osm-containing-building","zone_confidence":"building-match","legal_note":"Public Health Act 2010 (NSW) s 98A covers the clinic premises and every place within 150 m of any part of those premises or a pedestrian access point to the building. This map buffers the mapped building and does not separately model pedestrian access points.","osm_url":"https://www.openstreetmap.org/way/586315155","data_source":"Healthdirect National Health Services Directory (NHSD)","data_source_url":"https://www.healthdirect.gov.au/australian-health-services","source_synced_at":"2026-09-16T00:09:42Z"},"geometry":{"type":"Point","coordinates":[151.209259,-33.886745]}},{"type":"Feature","id":"601c9353-c05f-490c-8321-99b8b786dd8a","properties":{"id":"601c9353-c05f-490c-8321-99b8b786dd8a","name":"Double Bay Doctors","category":"doctor","category_label":"Doctor / general practice","service_type":"Pregnancy termination","suburb":"DOUBLE BAY","state":"NSW","postcode":"2028","phone":"02 9328 3100","website":"","appointment_required":true,"geometry_source":"openstreetmap","boundary_status":"matched","zone_basis":"osm-containing-building","zone_confidence":"building-match","legal_note":"Public Health Act 2010 (NSW) s 98A covers the clinic premises and every place within 150 m of any part of those premises or a pedestrian access point to the building. This map buffers the mapped building and does not separately model pedestrian access points.","osm_url":"https://www.openstreetmap.org/way/831631766","data_source":"Healthdirect National Health Services Directory (NHSD)","data_source_url":"https://www.healthdirect.gov.au/australian-health-services","source_synced_at":"2026-09-16T00:09:42Z"},"geometry":{"type":"Point","coordinates":[151.2448272705078,-33.87691879272461]}},{"type":"Feature","id":"4cc90c9f-f709-4b77-9871-afbc316f008c","properties":{"id":"4cc90c9f-f709-4b77-9871-afbc316f008c","name":"Bondi Doctors","category":"doctor","category_label":"Doctor / general practice","service_type":"Pregnancy termination","suburb":"BONDI BEACH","state":"NSW","postcode":"2026","phone":"02 9365 2833","website":"http://www.bondidoctors.com/","appointment_required":true,"geometry_source":"openstreetmap","boundary_status":"matched","zone_basis":"osm-containing-building","zone_confidence":"building-match","legal_note":"Public Health Act 2010 (NSW) s 98A covers the clinic premises and every place within 150 m of any part of those premises or a pedestrian access point to the building. This map buffers the mapped building and does not separately model pedestrian access points.","osm_url":"https://www.openstreetmap.org/way/623987597","data_source":"Healthdirect National Health Services Directory (NHSD)","data_source_url":"https://www.healthdirect.gov.au/australian-health-services","source_synced_at":"2026-09-16T00:09:42Z"},"geometry":{"type":"Point","coordinates":[151.26998404,-33.88889856]}},{"type":"Feature","id":"5cbea1be-ced0-49f9-9cc1-5383f8fd3903","properties":{"id":"5cbea1be-ced0-49f9-9cc1-5383f8fd3903","name":"SK Medical Centre","category":"doctor","category_label":"Doctor / general practice","service_type":"Pregnancy termination","suburb":"CAMPSIE","state":"NSW","postcode":"2194","phone":"02 9193 7850","website":"https://www.skmedicalcentre.com.au/","appointment_required":true,"geometry_source":"manual","boundary_status":"manual","zone_basis":"manual-premises","zone_confidence":"reviewed","legal_note":"Public Health Act 2010 (NSW) s 98A covers the clinic premises and every place within 150 m of any part of those premises or a pedestrian access point to the building. This map buffers the mapped building and does not separately model pedestrian access points.","osm_url":"","data_source":"Healthdirect National Health Services Directory (NHSD)","data_source_url":"https://www.healthdirect.gov.au/australian-health-services","source_synced_at":"2026-09-16T00:09:42Z"},"geometry":{"type":"Point","coordinates":[151.10374929,-33.91333636]}},{"type":"Feature","id":"89271310-858b-4eeb-8163-2753dd07e1cb","properties":{"id":"89271310-858b-4eeb-8163-2753dd07e1cb","name":"Rhodes Family Practice","category":"doctor","category_label":"Doctor / general practice","service_type":"Pregnancy termination","suburb":"RHODES","state":"NSW","postcode":"2138","phone":"0297431760","website":"https://www.rhodesfamilypractice.com.au/","appointment_required":true,"geometry_source":"openstreetmap","boundary_status":"matched","zone_basis":"osm-containing-building","zone_confidence":"building-match","legal_note":"Public Health Act 2010 (NSW) s 98A covers the clinic premises and every place within 150 m of any part of those premises or a pedestrian access point to the building. This map buffers the mapped building and does not separately model pedestrian access points.","osm_url":"https://www.openstreetmap.org/way/564840907","data_source":"Healthdirect National Health Services Directory (NHSD)","data_source_url":"https://www.healthdirect.gov.au/australian-health-services","source_synced_at":"2026-09-16T00:09:42Z"},"geometry":{"type":"Point","coordinates":[151.08713162,-33.82751141]}},{"type":"Feature","id":"c3b84b15-0ba4-46b6-a726-5cad58e3dd88","properties":{"id":"c3b84b15-0ba4-46b6-a726-5cad58e3dd88","name":"Vivant Medical Olympic Park","category":"doctor","category_label":"Doctor / general practice","service_type":"Pregnancy termination","suburb":"LIDCOMBE","state":"NSW","postcode":"2141","phone":"02 8043 8810","website":"https://www.vivantmedical.com.au/","appointment_required":true,"geometry_source":"openstreetmap","boundary_status":"matched","zone_basis":"osm-containing-building","zone_confidence":"building-match","legal_note":"Public Health Act 2010 (NSW) s 98A covers the clinic premises and every place within 150 m of any part of those premises or a pedestrian access point to the building. This map buffers the mapped building and does not separately model pedestrian access points.","osm_url":"https://www.openstreetmap.org/way/1364957532","data_source":"Healthdirect National Health Services Directory (NHSD)","data_source_url":"https://www.healthdirect.gov.au/australian-health-services","source_synced_at":"2026-09-16T00:09:42Z"},"geometry":{"type":"Point","coordinates":[151.06139035268686,-33.85065740135285]}},{"type":"Feature","id":"2e6f8ddf-8f1b-4fd9-980d-7071219611a2","properties":{"id":"2e6f8ddf-8f1b-4fd9-980d-7071219611a2","name":"Family Planning Australia","category":"clinic","category_label":"Abortion clinic","service_type":"Pregnancy termination","suburb":"NEWINGTON","state":"NSW","postcode":"2127","phone":"1300 372 372","website":"https://www.fpnsw.org.au","appointment_required":true,"geometry_source":"manual","boundary_status":"manual","zone_basis":"manual-premises","zone_confidence":"reviewed","legal_note":"Public Health Act 2010 (NSW) s 98A covers the clinic premises and every place within 150 m of any part of those premises or a pedestrian access point to the building. This map buffers the mapped building and does not separately model pedestrian access points.","osm_url":"","data_source":"Healthdirect National Health Services Directory (NHSD)","data_source_url":"https://www.healthdirect.gov.au/australian-health-services","source_synced_at":"2026-09-16T00:09:42Z"},"geometry":{"type":"Point","coordinates":[151.05587784,-33.83240312]}},{"type":"Feature","id":"1940d9ae-37a3-4843-a5ae-d3ce9410eb6e","properties":{"id":"1940d9ae-37a3-4843-a5ae-d3ce9410eb6e","name":"Family Planning Australia Day Surgery Unit","category":"clinic","category_label":"Abortion clinic","service_type":"Pregnancy termination","suburb":"NEWINGTON","state":"NSW","postcode":"2127","phone":"1300 372 372","website":"https://www.fpnsw.org.au/clinics/day-surgery","appointment_required":true,"geometry_source":"manual","boundary_status":"manual","zone_basis":"manual-premises","zone_confidence":"reviewed","legal_note":"Public Health Act 2010 (NSW) s 98A covers the clinic premises and every place within 150 m of any part of those premises or a pedestrian access point to the building. This map buffers the mapped building and does not separately model pedestrian access points.","osm_url":"","data_source":"Healthdirect National Health Services Directory (NHSD)","data_source_url":"https://www.healthdirect.gov.au/australian-health-services","source_synced_at":"2026-09-16T00:09:42Z"},"geometry":{"type":"Point","coordinates":[151.05587784,-33.83240312]}},{"type":"Feature","id":"6a06038f-b4f5-4f3f-afa9-65a9097e51a9","properties":{"id":"6a06038f-b4f5-4f3f-afa9-65a9097e51a9","name":"MSI Westmead (Sydney West) Abortion & Contraception Clinic","category":"clinic","category_label":"Abortion clinic","service_type":"Pregnancy termination","suburb":"WESTMEAD","state":"NSW","postcode":"2145","phone":"1300 003 707","website":"https://www.msiaustralia.org.au/find-a-clinic/msi-sydney-west-clinic/","appointment_required":true,"geometry_source":"openstreetmap","boundary_status":"matched","zone_basis":"osm-containing-building","zone_confidence":"building-match","legal_note":"Public Health Act 2010 (NSW) s 98A covers the clinic premises and every place within 150 m of any part of those premises or a pedestrian access point to the building. This map buffers the mapped building and does not separately model pedestrian access points.","osm_url":"https://www.openstreetmap.org/way/965302314","data_source":"Healthdirect National Health Services Directory (NHSD)","data_source_url":"https://www.healthdirect.gov.au/australian-health-services","source_synced_at":"2026-09-16T00:09:42Z"},"geometry":{"type":"Point","coordinates":[150.9878269,-33.80772078]}},{"type":"Feature","id":"eb037bbc-b6ef-4909-a334-e94ab7ba46b9","properties":{"id":"eb037bbc-b6ef-4909-a334-e94ab7ba46b9","name":"Family Planning Australia - Fairfield Clinic","category":"clinic","category_label":"Abortion clinic","service_type":"Pregnancy termination","suburb":"FAIRFIELD","state":"NSW","postcode":"2165","phone":"1300 372 372","website":"","appointment_required":true,"geometry_source":"manual","boundary_status":"manual","zone_basis":"manual-premises","zone_confidence":"reviewed","legal_note":"Public Health Act 2010 (NSW) s 98A covers the clinic premises and every place within 150 m of any part of those premises or a pedestrian access point to the building. This map buffers the mapped building and does not separately model pedestrian access points.","osm_url":"","data_source":"Healthdirect National Health Services Directory (NHSD)","data_source_url":"https://www.healthdirect.gov.au/australian-health-services","source_synced_at":"2026-09-16T00:09:42Z"},"geometry":{"type":"Point","coordinates":[150.95457458496094,-33.86863327026367]}},{"type":"Feature","id":"860a0440-ff6f-4e93-aa5e-72be70fb3af3","properties":{"id":"860a0440-ff6f-4e93-aa5e-72be70fb3af3","name":"Family Planning NSW Penrith","category":"clinic","category_label":"Abortion clinic","service_type":"Pregnancy termination","suburb":"PENRITH","state":"NSW","postcode":"2750","phone":"1300 372 372","website":"","appointment_required":true,"geometry_source":"openstreetmap","boundary_status":"matched","zone_basis":"osm-containing-building","zone_confidence":"reviewed","legal_note":"Public Health Act 2010 (NSW) s 98A covers the clinic premises and every place within 150 m of any part of those premises or a pedestrian access point to the building. This map buffers the mapped building and does not separately model pedestrian access points.","osm_url":"https://www.openstreetmap.org/way/1500246918","data_source":"Healthdirect National Health Services Directory (NHSD)","data_source_url":"https://www.healthdirect.gov.au/australian-health-services","source_synced_at":"2026-09-16T00:09:42Z"},"geometry":{"type":"Point","coordinates":[150.6939239501953,-33.756134033203125]}},{"type":"Feature","id":"beb84181-7e55-48ef-b7d7-c3e8d686b971","properties":{"id":"beb84181-7e55-48ef-b7d7-c3e8d686b971","name":"Family Planning Australia - Hunter Clinic","category":"clinic","category_label":"Abortion clinic","service_type":"Pregnancy termination","suburb":"NEWCASTLE","state":"NSW","postcode":"2300","phone":"1300 372 372","website":"https://www.fpnsw.org.au","appointment_required":true,"geometry_source":"openstreetmap","boundary_status":"matched","zone_basis":"osm-containing-building","zone_confidence":"building-match","legal_note":"Public Health Act 2010 (NSW) s 98A covers the clinic premises and every place within 150 m of any part of those premises or a pedestrian access point to the building. This map buffers the mapped building and does not separately model pedestrian access points.","osm_url":"https://www.openstreetmap.org/way/571092627","data_source":"Healthdirect National Health Services Directory (NHSD)","data_source_url":"https://www.healthdirect.gov.au/australian-health-services","source_synced_at":"2026-09-16T00:09:42Z"},"geometry":{"type":"Point","coordinates":[151.77368093,-32.92658223]}},{"type":"Feature","id":"502824f5-96e2-4711-90eb-d6d7d632f82a","properties":{"id":"502824f5-96e2-4711-90eb-d6d7d632f82a","name":"New Lambton Family Practice","category":"doctor","category_label":"Doctor / general practice","service_type":"Pregnancy termination","suburb":"NEW LAMBTON","state":"NSW","postcode":"2305","phone":"02 4952 7677","website":"https://www.evgp.com.au/","appointment_required":true,"geometry_source":"manual","boundary_status":"manual","zone_basis":"manual-premises","zone_confidence":"reviewed","legal_note":"Public Health Act 2010 (NSW) s 98A covers the clinic premises and every place within 150 m of any part of those premises or a pedestrian access point to the building. This map buffers the mapped building and does not separately model pedestrian access points.","osm_url":"","data_source":"Healthdirect National Health Services Directory (NHSD)","data_source_url":"https://www.healthdirect.gov.au/australian-health-services","source_synced_at":"2026-09-16T00:09:42Z"},"geometry":{"type":"Point","coordinates":[151.7153576,-32.92264808]}},{"type":"Feature","id":"0fb7638c-60bf-4346-9215-4303df027811","properties":{"id":"0fb7638c-60bf-4346-9215-4303df027811","name":"Elmwood Medical Centre","category":"doctor","category_label":"Doctor / general practice","service_type":"Pregnancy termination","suburb":"WODONGA","state":"VIC","postcode":"3690","phone":"0260563011","website":"https://elmwoodmedical.com.au/","appointment_required":true,"geometry_source":"openstreetmap","boundary_status":"matched","zone_basis":"osm-containing-building","zone_confidence":"building-match","legal_note":"Public Health and Wellbeing Act 2008 (Vic) s 185B defines the safe access zone as the area within a 150 m radius of premises where abortions are provided, excluding pharmacies. This map uses the mapped building as a proxy for the legal premises.","osm_url":"https://www.openstreetmap.org/way/672581277","data_source":"Healthdirect National Health Services Directory (NHSD)","data_source_url":"https://www.healthdirect.gov.au/australian-health-services","source_synced_at":"2026-09-16T00:09:42Z"},"geometry":{"type":"Point","coordinates":[146.8693,-36.1366]}},{"type":"Feature","id":"061ae48c-30bf-44b6-9e8c-3bb7b77de9a5","properties":{"id":"061ae48c-30bf-44b6-9e8c-3bb7b77de9a5","name":"MSI Canberra Abortion & Contraception Clinic","category":"clinic","category_label":"Abortion clinic","service_type":"Pregnancy termination","suburb":"CITY","state":"ACT","postcode":"2601","phone":"1300 003 707","website":"https://www.msiaustralia.org.au/find-a-clinic/msi-canberra-clinic/","appointment_required":true,"geometry_source":"openstreetmap","boundary_status":"matched","zone_basis":"osm-containing-building","zone_confidence":"building-match","legal_note":"Health Act 1993 (ACT) s 86 requires a ministerially declared area that is at least 50 m at every point from the protected facility, sufficient for privacy and access, and no larger than necessary. This map shows a generic 150 m building buffer, not the legal declaration.","osm_url":"https://www.openstreetmap.org/way/28399169","data_source":"Healthdirect National Health Services Directory (NHSD)","data_source_url":"https://www.healthdirect.gov.au/australian-health-services","source_synced_at":"2026-09-16T00:09:42Z"},"geometry":{"type":"Point","coordinates":[149.12765671,-35.27785606]}},{"type":"Feature","id":"b9a99261-e552-4bde-bb6b-1fdf0ca48bac","properties":{"id":"b9a99261-e552-4bde-bb6b-1fdf0ca48bac","name":"MSI Richmond","category":"clinic","category_label":"Abortion clinic","service_type":"Pregnancy termination","suburb":"RICHMOND","state":"VIC","postcode":"3121","phone":"1300 003 707","website":"https://www.msiaustralia.org.au/","appointment_required":true,"geometry_source":"openstreetmap","boundary_status":"matched","zone_basis":"osm-containing-building","zone_confidence":"building-match","legal_note":"Public Health and Wellbeing Act 2008 (Vic) s 185B defines the safe access zone as the area within a 150 m radius of premises where abortions are provided, excluding pharmacies. This map uses the mapped building as a proxy for the legal premises.","osm_url":"https://www.openstreetmap.org/way/260406951","data_source":"Healthdirect National Health Services Directory (NHSD)","data_source_url":"https://www.healthdirect.gov.au/australian-health-services","source_synced_at":"2026-09-16T00:09:42Z"},"geometry":{"type":"Point","coordinates":[145.0140643,-37.81237145]}},{"type":"Feature","id":"7e003232-4104-4c8a-a4d6-fa26056de275","properties":{"id":"7e003232-4104-4c8a-a4d6-fa26056de275","name":"MyHealth Medical Centre - Carlton","category":"doctor","category_label":"Doctor / general practice","service_type":"Pregnancy termination","suburb":"CARLTON","state":"VIC","postcode":"3053","phone":"03 9347 7711","website":"https://myhealth.net.au/carlton","appointment_required":true,"geometry_source":"openstreetmap","boundary_status":"matched","zone_basis":"osm-containing-building","zone_confidence":"building-match","legal_note":"Public Health and Wellbeing Act 2008 (Vic) s 185B defines the safe access zone as the area within a 150 m radius of premises where abortions are provided, excluding pharmacies. This map uses the mapped building as a proxy for the legal premises.","osm_url":"https://www.openstreetmap.org/way/27521827","data_source":"Healthdirect National Health Services Directory (NHSD)","data_source_url":"https://www.healthdirect.gov.au/australian-health-services","source_synced_at":"2026-09-16T00:09:42Z"},"geometry":{"type":"Point","coordinates":[144.9681854248047,-37.79806137084961]}},{"type":"Feature","id":"66547b30-8da7-40e4-8d14-5455f12aa58f","properties":{"id":"66547b30-8da7-40e4-8d14-5455f12aa58f","name":"MSI St Kilda (Melbourne) Abortion & Contraception Clinic","category":"clinic","category_label":"Abortion clinic","service_type":"Pregnancy termination","suburb":"ELWOOD","state":"VIC","postcode":"3184","phone":"1300 003 707","website":"https://www.msiaustralia.org.au/find-a-clinic/msi-melbourne-clinic/","appointment_required":true,"geometry_source":"openstreetmap","boundary_status":"matched","zone_basis":"osm-containing-building","zone_confidence":"reviewed","legal_note":"Public Health and Wellbeing Act 2008 (Vic) s 185B defines the safe access zone as the area within a 150 m radius of premises where abortions are provided, excluding pharmacies. This map uses the mapped building as a proxy for the legal premises.","osm_url":"https://www.openstreetmap.org/way/409011952","data_source":"Healthdirect National Health Services Directory (NHSD)","data_source_url":"https://www.healthdirect.gov.au/australian-health-services","source_synced_at":"2026-09-16T00:09:42Z"},"geometry":{"type":"Point","coordinates":[144.98180023,-37.87324099]}},{"type":"Feature","id":"dcac0ab0-e1d4-415d-94d9-1681e46e79d6","properties":{"id":"dcac0ab0-e1d4-415d-94d9-1681e46e79d6","name":"Supernova Medical Centre","category":"doctor","category_label":"Doctor / general practice","service_type":"Pregnancy termination","suburb":"TARNEIT","state":"VIC","postcode":"3029","phone":"0388665544","website":"https://supernovamedical.com.au/","appointment_required":true,"geometry_source":"manual","boundary_status":"manual","zone_basis":"manual-premises","zone_confidence":"reviewed","legal_note":"Public Health and Wellbeing Act 2008 (Vic) s 185B defines the safe access zone as the area within a 150 m radius of premises where abortions are provided, excluding pharmacies. This map uses the mapped building as a proxy for the legal premises.","osm_url":"","data_source":"Healthdirect National Health Services Directory (NHSD)","data_source_url":"https://www.healthdirect.gov.au/australian-health-services","source_synced_at":"2026-09-16T00:09:42Z"},"geometry":{"type":"Point","coordinates":[144.70273423,-37.84975548]}},{"type":"Feature","id":"7848de12-d72f-429f-8be0-f525ebdf1e7c","properties":{"id":"7848de12-d72f-429f-8be0-f525ebdf1e7c","name":"MSI Gold Coast Abortion & Contraception Clinic","category":"clinic","category_label":"Abortion clinic","service_type":"Pregnancy termination","suburb":"VARSITY LAKES","state":"QLD","postcode":"4227","phone":"1300 003 707","website":"https://www.msiaustralia.org.au/find-a-clinic/msi-gold-coast-clinic/","appointment_required":true,"geometry_source":"openstreetmap","boundary_status":"matched","zone_basis":"osm-containing-building","zone_confidence":"building-match","legal_note":"Termination of Pregnancy Act 2018 (Qld) s 14 covers the premises and places no more than 150 m from an entrance, unless another distance is prescribed. This map instead buffers the entire mapped building, so its boundary can differ from the legal zone.","osm_url":"https://www.openstreetmap.org/way/544073292","data_source":"Healthdirect National Health Services Directory (NHSD)","data_source_url":"https://www.healthdirect.gov.au/australian-health-services","source_synced_at":"2026-09-16T00:09:42Z"},"geometry":{"type":"Point","coordinates":[153.40990582,-28.0791405]}},{"type":"Feature","id":"89cb7ece-0ec3-422c-8e12-0483ed1e5eec","properties":{"id":"89cb7ece-0ec3-422c-8e12-0483ed1e5eec","name":"Myhealth Benowa Village","category":"doctor","category_label":"Doctor / general practice","service_type":"Pregnancy termination","suburb":"BENOWA","state":"QLD","postcode":"4217","phone":"07 5618 8616","website":"https://myhealth.net.au/benowa-village/","appointment_required":true,"geometry_source":"openstreetmap","boundary_status":"matched","zone_basis":"osm-containing-building","zone_confidence":"building-match","legal_note":"Termination of Pregnancy Act 2018 (Qld) s 14 covers the premises and places no more than 150 m from an entrance, unless another distance is prescribed. This map instead buffers the entire mapped building, so its boundary can differ from the legal zone.","osm_url":"https://www.openstreetmap.org/way/673306833","data_source":"Healthdirect National Health Services Directory (NHSD)","data_source_url":"https://www.healthdirect.gov.au/australian-health-services","source_synced_at":"2026-09-16T00:09:42Z"},"geometry":{"type":"Point","coordinates":[153.37673950195312,-27.999834060668945]}},{"type":"Feature","id":"9987039c-8515-4816-b447-0690a4c615f0","properties":{"id":"9987039c-8515-4816-b447-0690a4c615f0","name":"Gynaehealth","category":"clinic","category_label":"Abortion clinic","service_type":"Pregnancy termination","suburb":"SPRINGWOOD","state":"QLD","postcode":"4127","phone":"07 3397 1211","website":"https://www.gynaehealth.com.au","appointment_required":true,"geometry_source":"manual","boundary_status":"manual","zone_basis":"manual-premises","zone_confidence":"reviewed","legal_note":"Termination of Pregnancy Act 2018 (Qld) s 14 covers the premises and places no more than 150 m from an entrance, unless another distance is prescribed. This map instead buffers the entire mapped building, so its boundary can differ from the legal zone.","osm_url":"","data_source":"Healthdirect National Health Services Directory (NHSD)","data_source_url":"https://www.healthdirect.gov.au/australian-health-services","source_synced_at":"2026-09-16T00:09:42Z"},"geometry":{"type":"Point","coordinates":[153.12613682,-27.61745831]}},{"type":"Feature","id":"756b93ea-944c-4289-910f-907613094ad3","properties":{"id":"756b93ea-944c-4289-910f-907613094ad3","name":"MSI Brisbane Abortion & Contraception Clinic","category":"clinic","category_label":"Abortion clinic","service_type":"Pregnancy termination","suburb":"BOWEN HILLS","state":"QLD","postcode":"4006","phone":"1300 003 707","website":"https://www.msiaustralia.org.au/find-a-clinic/msi-brisbane-clinic/","appointment_required":true,"geometry_source":"openstreetmap","boundary_status":"matched","zone_basis":"osm-containing-building","zone_confidence":"building-match","legal_note":"Termination of Pregnancy Act 2018 (Qld) s 14 covers the premises and places no more than 150 m from an entrance, unless another distance is prescribed. This map instead buffers the entire mapped building, so its boundary can differ from the legal zone.","osm_url":"https://www.openstreetmap.org/way/551871973","data_source":"Healthdirect National Health Services Directory (NHSD)","data_source_url":"https://www.healthdirect.gov.au/australian-health-services","source_synced_at":"2026-09-16T00:09:42Z"},"geometry":{"type":"Point","coordinates":[153.03717041015625,-27.44794464111328]}},{"type":"Feature","id":"f5318dd4-75ef-48e9-80af-d8855b99490c","properties":{"id":"f5318dd4-75ef-48e9-80af-d8855b99490c","name":"Brewer Street Medical Centre","category":"doctor","category_label":"Doctor / general practice","service_type":"Pregnancy termination","suburb":"KALLANGUR","state":"QLD","postcode":"4503","phone":"07 3448 0438","website":"https://brewerstreetmedical.com.au","appointment_required":true,"geometry_source":"manual","boundary_status":"manual","zone_basis":"manual-premises","zone_confidence":"reviewed","legal_note":"Termination of Pregnancy Act 2018 (Qld) s 14 covers the premises and places no more than 150 m from an entrance, unless another distance is prescribed. This map instead buffers the entire mapped building, so its boundary can differ from the legal zone.","osm_url":"","data_source":"Healthdirect National Health Services Directory (NHSD)","data_source_url":"https://www.healthdirect.gov.au/australian-health-services","source_synced_at":"2026-09-16T00:09:42Z"},"geometry":{"type":"Point","coordinates":[152.99863818,-27.24960313]}},{"type":"Feature","id":"098c0872-7bf7-47ad-8f65-a5835e6610ed","properties":{"id":"098c0872-7bf7-47ad-8f65-a5835e6610ed","name":"Hyde Park Medical Centre","category":"doctor","category_label":"Doctor / general practice","service_type":"Pregnancy termination","suburb":"HYDE PARK","state":"QLD","postcode":"4812","phone":"07 4772 6222","website":"https://hydeparkmedicalcentre.com.au/","appointment_required":true,"geometry_source":"openstreetmap","boundary_status":"matched","zone_basis":"osm-containing-building","zone_confidence":"reviewed","legal_note":"Termination of Pregnancy Act 2018 (Qld) s 14 covers the premises and places no more than 150 m from an entrance, unless another distance is prescribed. This map instead buffers the entire mapped building, so its boundary can differ from the legal zone.","osm_url":"https://www.openstreetmap.org/way/600714515","data_source":"Healthdirect National Health Services Directory (NHSD)","data_source_url":"https://www.healthdirect.gov.au/australian-health-services","source_synced_at":"2026-09-16T00:09:42Z"},"geometry":{"type":"Point","coordinates":[146.7977752685547,-19.277435302734375]}},{"type":"Feature","id":"12b8df52-0190-4296-f330-e8867dfb10df","properties":{"id":"12b8df52-0190-4296-f330-e8867dfb10df","name":"Nanyara Clinic","category":"clinic","category_label":"Abortion clinic","service_type":"Pregnancy termination","suburb":"RIVERVALE","state":"WA","postcode":"6103","phone":"08 9277 6070","website":"","appointment_required":true,"geometry_source":"openstreetmap","boundary_status":"matched","zone_basis":"osm-containing-building","zone_confidence":"building-match","legal_note":"Public Health Act 2016 (WA) s 202O includes the abortion premises and the area within 150 m outside its boundary. This map buffers the mapped building, which may not exactly match the legal premises boundary.","osm_url":"https://www.openstreetmap.org/way/882598058","data_source":"Healthdirect National Health Services Directory (NHSD)","data_source_url":"https://www.healthdirect.gov.au/australian-health-services","source_synced_at":"2026-09-16T00:09:42Z"},"geometry":{"type":"Point","coordinates":[115.91545867919922,-31.95557403564453]}},{"type":"Feature","id":"f6ee1077-09f4-4c26-9edf-99e2341a73cc","properties":{"id":"f6ee1077-09f4-4c26-9edf-99e2341a73cc","name":"MSI Perth Abortion & Contraception Clinic","category":"clinic","category_label":"Abortion clinic","service_type":"Pregnancy termination","suburb":"MIDLAND","state":"WA","postcode":"6056","phone":"1300 003 707","website":"https://www.msiaustralia.org.au/find-a-clinic/msi-perth-clinic/","appointment_required":true,"geometry_source":"openstreetmap","boundary_status":"matched","zone_basis":"osm-containing-building","zone_confidence":"reviewed","legal_note":"Public Health Act 2016 (WA) s 202O includes the abortion premises and the area within 150 m outside its boundary. This map buffers the mapped building, which may not exactly match the legal premises boundary.","osm_url":"https://www.openstreetmap.org/way/161783678","data_source":"Healthdirect National Health Services Directory (NHSD)","data_source_url":"https://www.healthdirect.gov.au/australian-health-services","source_synced_at":"2026-09-16T00:09:42Z"},"geometry":{"type":"Point","coordinates":[116.0105209350586,-31.892629623413086]}},{"type":"Feature","id":"e9b237c4-65ba-9db5-4498-34795e8073af","properties":{"id":"e9b237c4-65ba-9db5-4498-34795e8073af","name":"Pregnancy Advisory Centre","category":"clinic","category_label":"Abortion clinic","service_type":"Pregnancy termination","suburb":"WOODVILLE PARK","state":"SA","postcode":"5011","phone":"08 7117 8999","website":"http://www.sahealth.sa.gov.au/AbortionSupportServices","appointment_required":true,"geometry_source":"manual","boundary_status":"manual","zone_basis":"manual-premises","zone_confidence":"reviewed","legal_note":"Health Care Act 2008 (SA) s 48B defines the health access zone as the protected premises plus public areas within 150 m. This map shows the full building buffer, including land that may not be a public area.","osm_url":"","data_source":"Healthdirect National Health Services Directory (NHSD)","data_source_url":"https://www.healthdirect.gov.au/australian-health-services","source_synced_at":"2026-09-16T00:09:42Z"},"geometry":{"type":"Point","coordinates":[138.54208576,-34.88468142]}},{"type":"Feature","id":"e40324eb-f974-4ad3-aa19-e0ee90461952","properties":{"id":"e40324eb-f974-4ad3-aa19-e0ee90461952","name":"Pandanus Medical NT","category":"doctor","category_label":"Doctor / general practice","service_type":"Pregnancy termination","suburb":"MILLNER","state":"NT","postcode":"0810","phone":"0889452488","website":"https://www.pandanusmedicalnt.com.au","appointment_required":true,"geometry_source":"openstreetmap","boundary_status":"matched","zone_basis":"osm-containing-building","zone_confidence":"building-match","legal_note":"Termination of Pregnancy Law Reform Act 2017 (NT) s 4 includes the premises for terminations and the area within 150 m outside its boundary. This map buffers the mapped building, which may not exactly match the legal premises boundary.","osm_url":"https://www.openstreetmap.org/way/233928611","data_source":"Healthdirect National Health Services Directory (NHSD)","data_source_url":"https://www.healthdirect.gov.au/australian-health-services","source_synced_at":"2026-09-16T00:09:42Z"},"geometry":{"type":"Point","coordinates":[130.85691071,-12.39174112]}}]}
